[{"OBJECT_NAME":"PRAETORIAN SDA_615","OBJECT_ID":"2025-203P","EPOCH":"2026-03-09T18:48:37.086048","MEAN_MOTION":13.84421708,"ECCENTRICITY":0.001046,"INCLINATION":81.2995,"RA_OF_ASC_NODE":102.6652,"ARG_OF_PERICENTER":101.0007,"MEAN_ANOMALY":259.2326,"EPHEMERIS_TYPE":0,"CLASSIFICATION_TYPE":"U","NORAD_CAT_ID":65578,"ELEMENT_SET_NO":999,"REV_AT_EPOCH":2495,"BSTAR":0.0002777395,"MEAN_MOTION_DOT":3.23e-6,"MEAN_MOTION_DDOT":0},{"OBJECT_NAME":"CZ-6A DEB","OBJECT_ID":"2022-151M","EPOCH":"2026-03-09T22:39:35.363520","MEAN_MOTION":14.02305376,"ECCENTRICITY":0.00830167,"INCLINATION":98.8904,"RA_OF_ASC_NODE":58.8402,"ARG_OF_PERICENTER":312.7496,"MEAN_ANOMALY":46.6705,"EPHEMERIS_TYPE":0,"CLASSIFICATION_TYPE":"U","NORAD_CAT_ID":54270,"ELEMENT_SET_NO":999,"REV_AT_EPOCH":16951,"BSTAR":0.00014396362,"MEAN_MOTION_DOT":1.84e-6,"MEAN_MOTION_DDOT":0}]
